CCSDS_OMM_VERS = 2.0
CREATION_DATE  = 
ORIGINATOR     = 

OBJECT_NAME    = XRISM
OBJECT_ID      = 2023-137A
CENTER_NAME    = EARTH
REF_FRAME      = TEME
TIME_SYSTEM    = UTC
MEAN_ELEMENT_THEORY = SGP/SGP4

EPOCH          = 2026-03-12T19:26:55.430592
MEAN_MOTION    = 15.11538051
ECCENTRICITY   = .0007902
INCLINATION    = 31.0011
RA_OF_ASC_NODE = 263.4786
ARG_OF_PERICENTER = 70.1790
MEAN_ANOMALY   = 289.9700

EPHEMERIS_TYPE = 0
CLASSIFICATION_TYPE = U
NORAD_CAT_ID   = 57800
ELEMENT_SET_NO = 999
REV_AT_EPOCH   = 13826
BSTAR          = .32222E-3
MEAN_MOTION_DOT = .5698E-4
MEAN_MOTION_DDOT = 0

CCSDS_OMM_VERS = 2.0
CREATION_DATE  = 
ORIGINATOR     = 

OBJECT_NAME    = ACS3
OBJECT_ID      = 2024-077B
CENTER_NAME    = EARTH
REF_FRAME      = TEME
TIME_SYSTEM    = UTC
MEAN_ELEMENT_THEORY = SGP/SGP4

EPOCH          = 2026-03-12T17:42:42.369696
MEAN_MOTION    = 13.89757757
ECCENTRICITY   = .0062273
INCLINATION    = 97.2052
RA_OF_ASC_NODE = 12.1643
ARG_OF_PERICENTER = 69.1869
MEAN_ANOMALY   = 291.5951

EPHEMERIS_TYPE = 0
CLASSIFICATION_TYPE = U
NORAD_CAT_ID   = 59588
ELEMENT_SET_NO = 999
REV_AT_EPOCH   = 9462
BSTAR          = .18958E-1
MEAN_MOTION_DOT = .23678E-3
MEAN_MOTION_DDOT = 0

CCSDS_OMM_VERS = 2.0
CREATION_DATE  = 
ORIGINATOR     = 

OBJECT_NAME    = SZ-21 MODULE
OBJECT_ID      = 2025-246C
CENTER_NAME    = EARTH
REF_FRAME      = TEME
TIME_SYSTEM    = UTC
MEAN_ELEMENT_THEORY = SGP/SGP4

EPOCH          = 2026-03-12T16:24:29.899296
MEAN_MOTION    = 15.68803443
ECCENTRICITY   = .0001119
INCLINATION    = 41.4730
RA_OF_ASC_NODE = 184.9262
ARG_OF_PERICENTER = 307.7188
MEAN_ANOMALY   = 52.3552

EPHEMERIS_TYPE = 0
CLASSIFICATION_TYPE = U
NORAD_CAT_ID   = 66515
ELEMENT_SET_NO = 999
REV_AT_EPOCH   = 1854
BSTAR          = .34395E-3
MEAN_MOTION_DOT = .40419E-3
MEAN_MOTION_DDOT = 0

